{
  "type": "FeatureCollection",
  "features": [
    {
      "type": "Feature",
      "geometry": {
        "type": "Point",
        "coordinates": [
          144.8509603,
          -37.7784329
        ]
      },
      "properties": {
        "slug": "city-cave-braybrook",
        "name": "City Cave Braybrook",
        "state": "VIC",
        "category": "day_spa",
        "suburb": "Braybrook",
        "status": "unclaimed",
        "summary": "Float therapy, infrared sauna, and massage in a treatment-led day spa inside the Home and Co. complex on Ballarat Rd.",
        "has_image": true,
        "amenities": {
          "magnesium_pool": false,
          "infrared_sauna": true,
          "traditional_sauna": false,
          "cold_plunge": false,
          "led_therapy": true
        },
        "facilities": {
          "parking": false,
          "towels_provided": false,
          "changerooms": false,
          "bookings_required": false,
          "wheelchair_access": false,
          "outdoor_pool": false,
          "indoor_pool": false,
          "natural_spring": false
        }
      }
    },
    {
      "type": "Feature",
      "geometry": {
        "type": "Point",
        "coordinates": [
          145.7182,
          -37.5493
        ]
      },
      "properties": {
        "slug": "romantic-getaways-melbourne",
        "name": "Woodlands Rainforest Retreat",
        "state": "VIC",
        "category": "thermal_springs",
        "suburb": "Narbethong",
        "status": "unclaimed",
        "summary": "Adults-only mountain resort near Narbethong with private mineral pools, an indoor Roman bathhouse, and couples spa packages.",
        "has_image": true,
        "amenities": {
          "magnesium_pool": false,
          "infrared_sauna": false,
          "traditional_sauna": false,
          "cold_plunge": false,
          "led_therapy": false
        },
        "facilities": {
          "parking": false,
          "towels_provided": false,
          "changerooms": false,
          "bookings_required": false,
          "wheelchair_access": false,
          "outdoor_pool": true,
          "indoor_pool": true,
          "natural_spring": true
        }
      }
    },
    {
      "type": "Feature",
      "geometry": {
        "type": "Point",
        "coordinates": [
          144.9977831,
          -37.8389012
        ]
      },
      "properties": {
        "slug": "soak-bathhouse",
        "name": "Soak Bathhouse – South Yarra",
        "state": "VIC",
        "category": "bathhouse",
        "suburb": "South Yarra",
        "status": "unclaimed",
        "summary": "Modern urban bathhouse in South Yarra with magnesium mineral pools, dry cedarwood sauna, steam room, cold plunge, and add-on treatments.",
        "has_image": false,
        "amenities": {
          "magnesium_pool": true,
          "infrared_sauna": true,
          "traditional_sauna": true,
          "cold_plunge": true,
          "led_therapy": true
        },
        "facilities": {
          "parking": false,
          "towels_provided": false,
          "changerooms": true,
          "bookings_required": false,
          "wheelchair_access": false,
          "outdoor_pool": true,
          "indoor_pool": true,
          "natural_spring": false
        }
      }
    }
  ]
}
